HAWK-2B                 
1 47508U 21006CZ  26068.67629241  .00009474  00000+0  29651-3 0  9991
2 47508  97.2334 114.1140 0007102 185.9063 174.2098 15.33301353284246
STARLINK-30392          
1 57855U 23141R   26068.82990884  .00000172  00000+0  17932-4 0  9996
2 57855  53.1598 283.1751 0000966 102.9029 257.2080 15.30187316140356
